[{"addressLine1":"20 Cardinal Hayes Place","addressLine2":"Rectory Basement","city":"New York","state":"NY","zipcode":10007},{"addressLine1":"20 Cardinal Hayes Place","addressLine2":"Enter through driveway behind Church.","city":"New York","state":"NY","zipcode":10007},{"addressLine1":"29 Mott Street","addressLine2":"Basement","city":"New York","state":"NY","zipcode":10013},{"addressLine1":"49 Fulton Street","addressLine2":"1st Floor Library","city":"New York","state":"NY","zipcode":10038},{"addressLine1":"44 John Street","addressLine2":"","city":"New York","state":"NY","zipcode":10038},{"addressLine1":"49 Fulton Street","addressLine2":"","city":"New York","state":"NY","zipcode":10038},{"addressLine1":"20 Cardinal Hayes Place","addressLine2":"Enter thru driveway behind Church.","city":"New York","state":"NY","zipcode":10007},{"addressLine1":"22 Barclay Street","addressLine2":"","city":"New York","state":"NY","zipcode":0},{"addressLine1":"20 Cardinal Hayes Place","addressLine2":"Enter thru driveway behind Church.","city":"New York","state":"NY","zipcode":10007},{"addressLine1":"22 Barclay Street (Basement)","addressLine2":"","city":"New York","state":"NY","zipcode":10007},{"addressLine1":"283 West Broadway","addressLine2":"","city":"New York","state":"NY","zipcode":10013},{"addressLine1":"125 Barclay Street","addressLine2":"","city":"New York","state":"NY","zipcode":10007},{"addressLine1":"49 Fulton Street","addressLine2":"Conference Room #1","city":"New York","state":"NY","zipcode":10038},{"addressLine1":"49 Fulton Street","addressLine2":"","city":"New York","state":"NY","zipcode":10038},{"addressLine1":"20 Cardinal Hayes Place","addressLine2":"10007","city":"New York","state":"NY"},{"addressLine1":"283 West Broadway","addressLine2":"","city":"New York","state":"NY","zipcode":10013},{"addressLine1":"49 Fulton Street","addressLine2":"","city":"New York","state":"NY","zipcode":10038},{"addressLine1":"22 Barclay Street- basement chapel","addressLine2":"","city":"New York","state":"NY","zipcode":10006},{"addressLine1":"20 Cardinal Hayes Place","addressLine2":"","city":"New York","state":"NY","zipcode":10007},{"addressLine1":"283 West Broadway","addressLine2":"10013","city":"New York","state":"NY"},{"addressLine1":"283 West Broadway","addressLine2":"","city":"New York","state":"NY","zipcode":10013},{"addressLine1":"283 W. Broadway","addressLine2":"","city":"New York","state":"NY","zipcode":10013}]