[{"addressLine1":"273 Bowery","addressLine2":"Downstairs","city":"New York","state":"NY","zipcode":10002},{"addressLine1":"232 West 11th Street","addressLine2":"","city":"New York","state":"NY","zipcode":10014},{"addressLine1":"283 West Broadway","addressLine2":"","city":"New York","state":"NY","zipcode":10013},{"addressLine1":"232 W. 11th Street","addressLine2":"","city":"New York","state":"NY","zipcode":10014},{"addressLine1":"220 West Houston Street","addressLine2":"2nd Floor","city":"New York","state":"NY","zipcode":10014},{"addressLine1":"253 Center Street","addressLine2":"3rd Floor","city":"New York","state":"NY","zipcode":10013},{"addressLine1":"273 Bowery","addressLine2":"","city":"New York","state":"NY","zipcode":10002},{"addressLine1":"487 Hudson Street","addressLine2":"Basement","city":"New York","state":"NY","zipcode":10014},{"addressLine1":"292 Henry Street","addressLine2":"Basement","city":"New York","state":"NY","zipcode":10002},{"addressLine1":"232 West 11th Street","addressLine2":"","city":"New York","state":"NY","zipcode":10014},{"addressLine1":"141 Henry Street","addressLine2":"1st Floor","city":"New York","state":"NY","zipcode":10002},{"addressLine1":"220 West Houston Street","addressLine2":"2nd Floor","city":"New York","state":"NY","zipcode":10014},{"addressLine1":"83 Christopher Street (Red Door","addressLine2":"Left of Church)","city":"New York","state":"NY","zipcode":10014},{"addressLine1":"50 Perry Street","addressLine2":"Ground Floor","city":"New York","state":"NY","zipcode":10014},{"addressLine1":"232 West 11th Street","addressLine2":"","city":"New York","state":"NY","zipcode":10014},{"addressLine1":"224 Waverly Place","addressLine2":"1st floor event room.","city":"New York","state":"NY","zipcode":10014},{"addressLine1":"154 Sullivan Street","addressLine2":"","city":"New York","state":"NY","zipcode":10012},{"addressLine1":"273 Bowery Street","addressLine2":"10012","city":"New York","state":"NY"},{"addressLine1":"371 6th Avenue","addressLine2":"Basement","city":"New York","state":"NY","zipcode":10014},{"addressLine1":"155 Sullivan Street","addressLine2":"Basement","city":"New York","state":"NY","zipcode":10012},{"addressLine1":"7 East 10th Strert","addressLine2":"","city":"New York","state":"NY","zipcode":10003},{"addressLine1":"232 West 11th Street","addressLine2":"Basement","city":"New York","state":"NY"},{"addressLine1":"81 Christopher Street","addressLine2":"","city":"New York","state":"NY","zipcode":10014},{"addressLine1":"273 Bowery","addressLine2":"Downstairs","city":"New York","state":"NY","zipcode":10002},{"addressLine1":"232 West 11th Street","addressLine2":"","city":"New York","state":"NY","zipcode":10014},{"addressLine1":"232 West 11th Street","addressLine2":"","city":"New York","state":"NY","zipcode":10014},{"addressLine1":"83 Christopher Street","addressLine2":"Basement","city":"New York","state":"NY","zipcode":10014},{"addressLine1":"220 West Houston Street","addressLine2":"2nd Floor","city":"New York","state":"NY","zipcode":10014},{"addressLine1":"273 Bowery","addressLine2":"Classroom Floor","city":"New York","state":"NY","zipcode":10002}]