[{"addressLine1":"7 East 10th Street","addressLine2":"2nd Floor","city":"New York","state":"NY"},{"addressLine1":"155 East 22nd Street","addressLine2":"Basement","city":"New York","state":"NY","zipcode":10010},{"addressLine1":"61 Fourth Avenue","addressLine2":"3rd Floor","city":"New York","state":"NY","zipcode":10003},{"addressLine1":"208 West 13th Street","addressLine2":"3rd Floor","city":"New York","state":"NY","zipcode":10011},{"addressLine1":"123 East 15th Street","addressLine2":"2nd Floor Conference Room","city":"New York","state":"NY","zipcode":10003},{"addressLine1":"61 Gramercy Park North","addressLine2":"","city":"New York","state":"NY","zipcode":10010},{"addressLine1":"155 East 22nd Street","addressLine2":"Ground Floor","city":"New York","state":"NY","zipcode":10010},{"addressLine1":"127 East 22nd Street","addressLine2":"2nd Floor Auditorium","city":"New York","state":"NY","zipcode":10010},{"addressLine1":"602 East 9th Street","addressLine2":"","city":"New York","state":"NY","zipcode":10009},{"addressLine1":"125 West 14th Street","addressLine2":"Kuttner Room","city":"New York","state":"NY","zipcode":10011},{"addressLine1":"346 W. 20th Street","addressLine2":"","city":"New York","state":"NY","zipcode":10011},{"addressLine1":"125 West 14th Street","addressLine2":"Ground Floor","city":"New York","state":"NY","zipcode":10011},{"addressLine1":"414 East 14th Street","addressLine2":"Auditorium","city":"New York","state":"NY","zipcode":10009},{"addressLine1":"119 Ninth Avenue","addressLine2":"","city":"New York","state":"NY","zipcode":10011},{"addressLine1":"202 West 24 Street","addressLine2":"Mezzanine","city":"New York","state":"NY","zipcode":10011},{"addressLine1":"28 Gramercy Park South","addressLine2":"1st Floor","city":"New York","state":"NY","zipcode":10003},{"addressLine1":"50 East 7th Street","addressLine2":"3rd and 4th floors","city":"New York","state":"NY","zipcode":10003},{"addressLine1":"273 Bowery","addressLine2":"2nd Floor Classroom","city":"New York","state":"NY","zipcode":10003},{"addressLine1":"802 Broadway","addressLine2":"3rd Floor Conference Room","city":"New York","state":"NY","zipcode":10003},{"addressLine1":"28 Grammercy Park South","addressLine2":"2nd floor","city":"New York","state":"NY","zipcode":10010},{"addressLine1":"209 East 16th Street","addressLine2":"Basement","city":"New York","state":"NY","zipcode":10003},{"addressLine1":"44 2nd Avenue","addressLine2":"Main Floor","city":"New York","state":"NY","zipcode":10003},{"addressLine1":"229 West 14th Street","addressLine2":"","city":"New York","state":"NY","zipcode":10011},{"addressLine1":"229 West 14th Street","addressLine2":"","city":"New York","state":"NY","zipcode":10011},{"addressLine1":"208 West 13th Street","addressLine2":"","city":"New York","state":"NY","zipcode":10011},{"addressLine1":"28 Gramercy Park South","addressLine2":"","city":"New York","state":"NY","zipcode":10003},{"addressLine1":"208 W 13th Street","addressLine2":"Room 212","city":"New York","state":"NY","zipcode":10001},{"addressLine1":"307 W. 26th St.","addressLine2":"","city":"New York","state":"NY","zipcode":10011},{"addressLine1":"343 West 25th Street","addressLine2":"","city":"New York","state":"NY","zipcode":10001},{"addressLine1":"80 St. Mark's Place","addressLine2":"2nd Floor","city":"New York","state":"NY","zipcode":10003},{"addressLine1":"208 West 13th Street","addressLine2":"","city":"New York","state":"NY","zipcode":10011},{"addressLine1":"51 East 25th Street","addressLine2":"Lower Level","city":"New York","state":"NY","zipcode":10010},{"addressLine1":"155 East 22nd Street","addressLine2":"Basement","city":"New York","state":"NY","zipcode":10010},{"addressLine1":"7 East 10th Street","addressLine2":"2nd Floor (Note: A photo ID is required to enter the building.)","city":"New York","state":"NY","zipcode":10003},{"addressLine1":"315 West 22nd Street","addressLine2":"1st Floor","city":"New York","state":"NY","zipcode":10011},{"addressLine1":"15 Rutherford Place","addressLine2":"Basement","city":"New York","state":"NY","zipcode":10003},{"addressLine1":"25 East 15th- Conference Room H","addressLine2":"10003","city":"New York","state":"NY"},{"addressLine1":"175 9th Avenue","addressLine2":"1st and 2nd Floor","city":"New York","state":"NY","zipcode":10011},{"addressLine1":"19 Union Square West","addressLine2":"7th Floor","city":"New York","state":"NY","zipcode":10003},{"addressLine1":"155 East 22nd Street","addressLine2":"1st Floor","city":"New York","state":"NY","zipcode":10010},{"addressLine1":"423 East 23rd Street","addressLine2":"3rd fl","city":"New York","state":"NY","zipcode":10010},{"addressLine1":"209 East 16th Street","addressLine2":"Olmstead Hall","city":"New York","state":"NY","zipcode":10003},{"addressLine1":"411 East 12th Street","addressLine2":"","city":"New York","state":"NY","zipcode":10009},{"addressLine1":"209 East 16th Street","addressLine2":"","city":"New York","state":"NY","zipcode":10003},{"addressLine1":"239 East 21st Street","addressLine2":"Church Rectory","city":"New York","state":"NY","zipcode":10009},{"addressLine1":"12 West 12th Street","addressLine2":"6th Floor-Roof Level","city":"New York","state":"NY","zipcode":10011},{"addressLine1":"44 2nd Avenue","addressLine2":"","city":"New York","state":"NY","zipcode":10003},{"addressLine1":"208 West 13th Street","addressLine2":"","city":"New York","state":"NY","zipcode":10011},{"addressLine1":"12 West 11th Street","addressLine2":"Ground Floor","city":"New York","state":"NY","zipcode":10011},{"addressLine1":"116 West 11th Street","addressLine2":"10011","city":"New York","state":"NY"},{"addressLine1":"80 5th Avenue","addressLine2":"14th Floor","city":"New York","state":"NY","zipcode":10011},{"addressLine1":"116 W. 11th Street","addressLine2":"Cafeteria","city":"New York","state":"NY","zipcode":10011},{"addressLine1":"155 East 22nd Street","addressLine2":"","city":"New York","state":"NY","zipcode":10010},{"addressLine1":"319 Eastr 24th Street","addressLine2":"","city":"New York","state":"NY","zipcode":10010},{"addressLine1":"10 East Union Square","addressLine2":"4th Floor","city":"New York","state":"NY","zipcode":10003},{"addressLine1":"206-208 East 11th Street","addressLine2":"","city":"New York","state":"NY","zipcode":10003},{"addressLine1":"123 East 15th Street","addressLine2":"2nd Floor","city":"New York","state":"NY","zipcode":10003},{"addressLine1":"411 East 12th Street","addressLine2":"Basement","city":"New York","state":"NY","zipcode":10009},{"addressLine1":"125 West 14th Street","addressLine2":"1st Floor Meeting Room","city":"New York","state":"NY","zipcode":10011},{"addressLine1":"208 West 13th Street","addressLine2":"","city":"New York","state":"NY","zipcode":10011},{"addressLine1":"10 Union Square East","addressLine2":"2nd Floor","city":"New York","state":"NY","zipcode":10003},{"addressLine1":"155 West 22nd Street","addressLine2":"1st Floor","city":"New York","state":"NY","zipcode":10011},{"addressLine1":"208 West 13th Street","addressLine2":"","city":"New York","state":"NY","zipcode":10011},{"addressLine1":"12 West 12th Street","addressLine2":"Third Floor","city":"New York","state":"NY","zipcode":10011},{"addressLine1":"20 Washington Square North","addressLine2":"2nd Floor","city":"New York","state":"NY","zipcode":10011},{"addressLine1":"344 East 14th Street","addressLine2":"","city":"New York","state":"NY","zipcode":10003},{"addressLine1":"155 West 22nd Street","addressLine2":"1st Floor","city":"New York","state":"NY","zipcode":10011},{"addressLine1":"208 West 13th Street","addressLine2":"","city":"New York","state":"NY","zipcode":10011},{"addressLine1":"602 East 9th Street","addressLine2":"Ground Floor","city":"New York","state":"NY","zipcode":10009},{"addressLine1":"208 West 13th Street","addressLine2":"","city":"New York","state":"NY","zipcode":10011},{"addressLine1":"208 West 13th Street","addressLine2":"","city":"New York","state":"NY","zipcode":10011},{"addressLine1":"19 Union Square West","addressLine2":"7th Floor","city":"New York","state":"NY","zipcode":10003},{"addressLine1":"173 East 3rd Street- basement","addressLine2":"","city":"New York","state":"NY","zipcode":10009},{"addressLine1":"50 East 7th Street","addressLine2":"","city":"New York","state":"NY","zipcode":10003}]