[{"addressLine1":"252 West 46th Street","addressLine2":"3rd Floor","city":"New York","state":"NY","zipcode":10036},{"addressLine1":"303 West 42nd Street","addressLine2":"Room #404","city":"New York","state":"NY","zipcode":10036},{"addressLine1":"303 West 42nd Street","addressLine2":"3rd Floor","city":"New York","state":"NY","zipcode":10036},{"addressLine1":"305 7th Avenue","addressLine2":"6th Floor","city":"New York","state":"NY","zipcode":10001},{"addressLine1":"1 West 53rd Street","addressLine2":"3rd Floor","city":"New York","state":"NY","zipcode":10019},{"addressLine1":"303 West 42nd Street","addressLine2":"3rd Floor","city":"New York","state":"NY","zipcode":10036},{"addressLine1":"133 West 46th Street","addressLine2":"3rd Floor","city":"New York","state":"NY","zipcode":10036},{"addressLine1":"441 West 26th Street","addressLine2":"2nd Fl.","city":"New York","state":"NY","zipcode":10001},{"addressLine1":"446 West 33rd Street","addressLine2":"6th Floor","city":"New York","state":"NY","zipcode":10001},{"addressLine1":"252 West 46th Street","addressLine2":"3rd Floor","city":"New York","state":"NY","zipcode":10036},{"addressLine1":"252 West 46th Street","addressLine2":"3rd Floor","city":"New York","state":"NY","zipcode":10036},{"addressLine1":"252 West 46th Street","addressLine2":"3rd Floor","city":"New York","state":"NY","zipcode":10036},{"addressLine1":"339 West 47th Street","addressLine2":"","city":"New York","state":"NY","zipcode":10036},{"addressLine1":"303 West 42nd St Rm 306","addressLine2":"","city":"New York","state":"NY","zipcode":10036},{"addressLine1":"139 West 31st Street","addressLine2":"3rd Floor","city":"New York","state":"NY","zipcode":10001},{"addressLine1":"422 West 57th Street","addressLine2":"Upstairs","city":"New York","state":"NY","zipcode":10019},{"addressLine1":"211 West 30th Street","addressLine2":"","city":"New York","state":"NY","zipcode":10001},{"addressLine1":"252 West 46th Street","addressLine2":"3rd Floor","city":"New York","state":"NY","zipcode":10036},{"addressLine1":"1 West 53rd Street","addressLine2":"3rd Floor","city":"New York","state":"NY","zipcode":10019},{"addressLine1":"422 West 57th Street","addressLine2":"","city":"New York","state":"NY","zipcode":10019},{"addressLine1":"7 West 55th Street","addressLine2":"5th Floor","city":"New York","state":"NY","zipcode":10019},{"addressLine1":"252 West 46th Street","addressLine2":"","city":"New York","state":"NY","zipcode":10036},{"addressLine1":"729 7th Avenue","addressLine2":"10th Floor small conference room","city":"New York","state":"NY","zipcode":10019},{"addressLine1":"538 West 47th Street","addressLine2":"","city":"New York","state":"NY","zipcode":10036},{"addressLine1":"1000 Tenth Avenue","addressLine2":"8th Floor (Room #8G49","city":"New York","state":"NY","zipcode":10019},{"addressLine1":"303 West 42nd Street","addressLine2":"3rd Floor","city":"New York","state":"NY","zipcode":10036},{"addressLine1":"252 West 46th Street","addressLine2":"3rd Floor","city":"New York","state":"NY","zipcode":10036},{"addressLine1":"307 West 26th Street","addressLine2":"","city":"New York","state":"NY","zipcode":10001},{"addressLine1":"405 West 59th Street","addressLine2":"","city":"New York","state":"NY","zipcode":10019},{"addressLine1":"303 West 42nd Street","addressLine2":"","city":"New York","state":"NY","zipcode":10036},{"addressLine1":"422 W. 57th St.","addressLine2":"","city":"New York","state":"NY","zipcode":10019},{"addressLine1":"133 West 46th Street","addressLine2":"3rd Floor","city":"New York","state":"NY","zipcode":10036},{"addressLine1":"133 West 46th Street","addressLine2":"2nd &amp; 3rd Floor","city":"New York","state":"NY","zipcode":10036},{"addressLine1":"303 West 42nd Street","addressLine2":"Room #306","city":"New York","state":"NY","zipcode":10036},{"addressLine1":"296 9th Avenue","addressLine2":"2nd Floor","city":"New York","state":"NY","zipcode":10001},{"addressLine1":"139 West 31st Street","addressLine2":"3rd Floor","city":"New York","state":"NY","zipcode":10001},{"addressLine1":"1 West 53rd Street","addressLine2":"3rd Floor","city":"New York","state":"NY"},{"addressLine1":"484 West 43rd Street","addressLine2":"1st Floor","city":"New York","state":"NY","zipcode":10036},{"addressLine1":"7 West 55th Street","addressLine2":"","city":"New York","state":"NY","zipcode":10019},{"addressLine1":"252 West 46th Street","addressLine2":"3rd Floor","city":"New York","state":"NY","zipcode":10036},{"addressLine1":"252 West 46th Street","addressLine2":"3rd Floor","city":"New York","state":"NY","zipcode":10036},{"addressLine1":"4 West 43rd Street","addressLine2":"","city":"New York","state":"NY","zipcode":10017},{"addressLine1":"252 West 46th Street","addressLine2":"3rd Floor","city":"New York","state":"NY","zipcode":10036},{"addressLine1":"296 Ninth Avenue","addressLine2":"Rectory","city":"New York","state":"NY","zipcode":10001},{"addressLine1":"1 West 53rd Street","addressLine2":"3rd Floor","city":"New York","state":"NY","zipcode":10019},{"addressLine1":"210 West 31st Street","addressLine2":"Basement (On Left)","city":"New York","state":"NY","zipcode":10001},{"addressLine1":"422 West 57th Street","addressLine2":"","city":"New York","state":"NY","zipcode":10019},{"addressLine1":"252 West 46th Street","addressLine2":"3rd Floor","city":"New York","state":"NY","zipcode":10036},{"addressLine1":"134 West 29th Street - 2nd floor Studio 203","addressLine2":"10001","city":"New York","state":"NY"},{"addressLine1":"1000 Tenth Avenue","addressLine2":"8th Fl","city":"New York","state":"NY","zipcode":10019},{"addressLine1":"446 West 33rd Street","addressLine2":"","city":"New York","state":"NY","zipcode":10001},{"addressLine1":"423 West 46th Street","addressLine2":"","city":"New York","state":"NY","zipcode":10036},{"addressLine1":"252 West 46th Street","addressLine2":"3rd Floor","city":"New York","state":"NY","zipcode":10036}]