[{"addressLine1":"122 East 37th Street","addressLine2":"Basement","city":"New York","state":"NY","zipcode":10016},{"addressLine1":"30 East 35th Street","addressLine2":"","city":"New York","state":"NY","zipcode":10016},{"addressLine1":"350 East 56th Street","addressLine2":"","city":"New York","state":"NY","zipcode":10022},{"addressLine1":"619 Lexington Avenue","addressLine2":"Lower Level Music Rooms","city":"New York","state":"NY","zipcode":10022},{"addressLine1":"122 East 37th Street","addressLine2":"Basement","city":"New York","state":"NY","zipcode":10016},{"addressLine1":"28 East 35th Street","addressLine2":"","city":"New York","state":"NY","zipcode":10016},{"addressLine1":"350 East 56th Street ","addressLine2":"","city":"New York","state":"NY","zipcode":10022},{"addressLine1":"283 Lexington Avenue","addressLine2":"2nd Floor","city":"New York","state":"NY","zipcode":10016},{"addressLine1":"122 East 37th Street","addressLine2":"Basement","city":"New York","state":"NY","zipcode":10016},{"addressLine1":"619 Lexington Avenue","addressLine2":"Lower Level 2 in The Studio","city":"New York","state":"NY","zipcode":10022},{"addressLine1":"141 East 43rd Street","addressLine2":"Basement Hall","city":"New York","state":"NY","zipcode":10017},{"addressLine1":"122 E 37TH St.","addressLine2":"","city":"New York","state":"NY","zipcode":10016},{"addressLine1":"122 East 37th Street","addressLine2":"","city":"New York","state":"NY","zipcode":10016},{"addressLine1":"141 East 43rd Street","addressLine2":"","city":"New York","state":"NY","zipcode":10017},{"addressLine1":"209 Madison Avenue","addressLine2":"2nd Floor","city":"New York","state":"NY","zipcode":10016},{"addressLine1":"122 East 37th Street","addressLine2":"Basement","city":"New York","state":"NY","zipcode":10016},{"addressLine1":"619 Lexington Avenue","addressLine2":"Lower Level","city":"New York","state":"NY","zipcode":10022},{"addressLine1":"240 East 31st Street","addressLine2":"NY 10016","city":"New York","state":"NY"},{"addressLine1":"114 East 35th Street","addressLine2":"2nd Floor","city":"New York","state":"NY","zipcode":10016},{"addressLine1":"230 East 60th Street (Basement) ","addressLine2":"","city":"New York","state":"NY","zipcode":10022},{"addressLine1":"244 East 58th Street","addressLine2":"","city":"New York","state":"NY","zipcode":10022},{"addressLine1":"619 Lexington Avenue","addressLine2":"Lower Level","city":"New York","state":"NY","zipcode":10022},{"addressLine1":"325 Park Avenue","addressLine2":"","city":"New York","state":"NY","zipcode":10022},{"addressLine1":"236 EAST 31st STREET ","addressLine2":"basement","city":"New York","state":"NY","zipcode":10016},{"addressLine1":"308 East 55th Street","addressLine2":"","city":"New York","state":"NY","zipcode":10022},{"addressLine1":"244 East 58th Street","addressLine2":"","city":"New York","state":"NY","zipcode":10022},{"addressLine1":"244 East 58th Street","addressLine2":"Lower Level","city":"New York","state":"NY","zipcode":10022},{"addressLine1":"109 East 50th Street","addressLine2":"","city":"New York","state":"NY","zipcode":10022}]