[{"addressLine1":"207 West 96th Street","addressLine2":"Basement","city":"New York","state":"NY","zipcode":10025},{"addressLine1":"120 West 69th Street","addressLine2":"Basement","city":"New York","state":"NY","zipcode":10023},{"addressLine1":"422 West 57th Street","addressLine2":"","city":"New York","state":"NY","zipcode":10023},{"addressLine1":"164 West 74th Street","addressLine2":"1st floor","city":"New York","state":"NY"},{"addressLine1":"207 West 96th Street","addressLine2":"Little Room Basement","city":"New York","state":"NY","zipcode":10025},{"addressLine1":"144 West 90th Street","addressLine2":"Basement","city":"New York","state":"NY","zipcode":10024},{"addressLine1":"141 West 73rd Street","addressLine2":"","city":"New York","state":"NY","zipcode":10023},{"addressLine1":"4 West 76th Street. Meeting in the gym.","addressLine2":"","city":"New York","state":"NY","zipcode":10023},{"addressLine1":"221 West 107th Street","addressLine2":"Basement","city":"New York","state":"NY","zipcode":10025},{"addressLine1":"207 West 96th Street","addressLine2":"Basement","city":"New York","state":"NY","zipcode":10025},{"addressLine1":"215 West 82nd Street","addressLine2":"","city":"New York","state":"NY","zipcode":10024},{"addressLine1":"601 West 114th Street","addressLine2":"(2nd Red Door)","city":"New York","state":"NY"},{"addressLine1":"Central Park West &amp; 76th Street - basement gymnasium","addressLine2":"","city":"New York","state":"NY","zipcode":10023},{"addressLine1":"5 West 63rd Street","addressLine2":"Downstairs in large meeting room.","city":"New York","state":"NY","zipcode":10023},{"addressLine1":"4 West 76th Street","addressLine2":"(In the gym)","city":"New York","state":"NY","zipcode":10023},{"addressLine1":"160 Central Park West","addressLine2":"Gym basement.","city":"New York","state":"NY","zipcode":10023},{"addressLine1":"152 West 66th Street","addressLine2":"Basement Level Chapel","city":"New York","state":"NY","zipcode":10023},{"addressLine1":"3 West 95th Street","addressLine2":"Lower Level Auditorium","city":"New York","state":"NY","zipcode":10025},{"addressLine1":"251 West 80th Street","addressLine2":"10024","city":"New York","state":"NY"},{"addressLine1":"111 West 71st Street","addressLine2":"","city":"New York","state":"NY","zipcode":10023},{"addressLine1":"5 West 63rd Street","addressLine2":"1st Floor","city":"New York","state":"NY","zipcode":10023},{"addressLine1":"5 West 63rd Street","addressLine2":"","city":"New York","state":"NY","zipcode":10023},{"addressLine1":"207 West 96th Street","addressLine2":"Basement","city":"New York","state":"NY","zipcode":10025},{"addressLine1":"26 West 84th Street","addressLine2":"","city":"New York","state":"NY","zipcode":10024},{"addressLine1":"200 West 97th Street","addressLine2":"Basement","city":"New York","state":"NY","zipcode":10025},{"addressLine1":"218 West 108th Street","addressLine2":"Main Floor","city":"New York","state":"NY","zipcode":10025},{"addressLine1":"125 West 104th Street","addressLine2":"1st Floor","city":"New York","state":"NY","zipcode":10025},{"addressLine1":"141 West 73rd Street","addressLine2":"","city":"New York","state":"NY","zipcode":10023},{"addressLine1":"236 West 73rd Street","addressLine2":"5th Floor","city":"New York","state":"NY","zipcode":10023},{"addressLine1":"165 West 105th Street","addressLine2":"Basement","city":"New York","state":"NY","zipcode":10025},{"addressLine1":"207 West 96th Street","addressLine2":"","city":"New York","state":"NY","zipcode":10025},{"addressLine1":"207 West 96th Street","addressLine2":"Basement","city":"New York","state":"NY","zipcode":10025},{"addressLine1":"2504 Broadway","addressLine2":"Basement","city":"New York","state":"NY","zipcode":10025},{"addressLine1":"405 West 114th Street","addressLine2":"Merton Room","city":"New York","state":"NY","zipcode":10025},{"addressLine1":"368 West End Ave","addressLine2":"1st floor","city":"New York","state":"NY","zipcode":10024},{"addressLine1":"225 West 99th Street","addressLine2":"1st Floor","city":"New York","state":"NY","zipcode":10025},{"addressLine1":"251 West 100th Street","addressLine2":"","city":"New York","state":"NY","zipcode":10025},{"addressLine1":"207 West 96th Street","addressLine2":"Basement","city":"New York","state":"NY","zipcode":10025},{"addressLine1":"26 West 84th Street","addressLine2":"","city":"New York","state":"NY","zipcode":10024},{"addressLine1":"5 West 63rd Street","addressLine2":"Basement","city":"New York","state":"NY","zipcode":10023},{"addressLine1":"552 West End Avenue","addressLine2":"Basement","city":"New York","state":"NY","zipcode":10024},{"addressLine1":"164 West 74 Street","addressLine2":"1st Floor","city":"New York","state":"NY","zipcode":10024},{"addressLine1":"340 West 85th Street","addressLine2":"Basement","city":"New York","state":"NY","zipcode":10024},{"addressLine1":"368 West End Avenue","addressLine2":"1st Floor","city":"New York","state":"NY","zipcode":10024},{"addressLine1":"152 West 71st Street","addressLine2":"","city":"New York","state":"NY","zipcode":10023},{"addressLine1":"5 West 63rd Street","addressLine2":"","city":"New York","state":"NY","zipcode":10023},{"addressLine1":"131 West 72nd Street","addressLine2":"3rd Floor","city":"New York","state":"NY","zipcode":10023},{"addressLine1":"207 West 96th Street","addressLine2":"Basement","city":"New York","state":"NY","zipcode":10025},{"addressLine1":"152 West 71st Street","addressLine2":"Ring Bell","city":"New York","state":"NY","zipcode":10023},{"addressLine1":"30 West 68th Street","addressLine2":"Check security desk for Room #","city":"New York","state":"NY","zipcode":10023},{"addressLine1":"207 West 96th Street","addressLine2":"Basement","city":"New York","state":"NY"},{"addressLine1":"263 West 86th Street","addressLine2":"1st Floor","city":"New York","state":"NY","zipcode":10024},{"addressLine1":"306 West 102nd Street","addressLine2":"2nd Floor","city":"New York","state":"NY","zipcode":10025},{"addressLine1":"152 West 71st Street","addressLine2":"NY 10023","city":"New York","state":"NY"},{"addressLine1":"26 West 84th Street","addressLine2":"Stanford Room (blue door)","city":"New York","state":"NY","zipcode":10024},{"addressLine1":"595 Columbus Avenue","addressLine2":"","city":"New York","state":"NY","zipcode":10024},{"addressLine1":"306 West 102nd Street","addressLine2":"2nd Floor","city":"New York","state":"NY","zipcode":10025},{"addressLine1":"213 West 82nd Street","addressLine2":"","city":"New York","state":"NY","zipcode":10024},{"addressLine1":"152 West 71st Street","addressLine2":"","city":"New York","state":"NY","zipcode":10023},{"addressLine1":"152 west 71st street","addressLine2":"","city":"New York","state":"NY"},{"addressLine1":"152 West 71st Street","addressLine2":"","city":"New York","state":"NY","zipcode":10023},{"addressLine1":"160 Central Park West","addressLine2":"Downstairs","city":"New York","state":"NY","zipcode":10023},{"addressLine1":"207 West 96th Street","addressLine2":"Basement","city":"New York","state":"NY","zipcode":10025}]