[{"addressLine1":"351 East 74th Street","addressLine2":"2nd Floor","city":"New York","state":"NY","zipcode":10021},{"addressLine1":"48 East 80th Street","addressLine2":"2nd Floor Library","city":"New York","state":"NY","zipcode":10021},{"addressLine1":"184 East 76th Street","addressLine2":"Basement","city":"New York","state":"NY","zipcode":10021},{"addressLine1":"351 East 74th Street","addressLine2":"2nd Floor","city":"New York","state":"NY","zipcode":10021},{"addressLine1":"1393 York Avenue","addressLine2":"","city":"New York","state":"NY","zipcode":10021},{"addressLine1":"520 Park Avenue","addressLine2":"","city":"New York","state":"NY","zipcode":10021},{"addressLine1":"337 E. 74th St.","addressLine2":"","city":"New York","state":"NY","zipcode":10021},{"addressLine1":"1157 Lexington Avenue","addressLine2":"","city":"New York","state":"NY","zipcode":10075},{"addressLine1":"420 East 76th Street","addressLine2":"","city":"New York","state":"NY","zipcode":10021},{"addressLine1":"230 East 90th Street","addressLine2":"Downstairs","city":"New York","state":"NY","zipcode":10128},{"addressLine1":"65 East 89th Street","addressLine2":"Basement","city":"New York","state":"NY","zipcode":10128},{"addressLine1":"865 Madison Avenue","addressLine2":"Basement","city":"New York","state":"NY","zipcode":10021},{"addressLine1":"1296 Lexington Avenue","addressLine2":"Basement","city":"New York","state":"NY","zipcode":10128},{"addressLine1":"351 East 74th Street","addressLine2":"Mazaryk Room","city":"New York","state":"NY","zipcode":10021},{"addressLine1":"1157 Lexington Avenue","addressLine2":"1st Floor","city":"New York","state":"NY","zipcode":10028},{"addressLine1":"351 East 74th Street","addressLine2":"Mazaryk Room","city":"New York","state":"NY","zipcode":10021},{"addressLine1":"351 East 74th Street","addressLine2":"2nd Floor","city":"New York","state":"NY","zipcode":10021},{"addressLine1":"65 East 89th Street","addressLine2":"","city":"New York","state":"NY","zipcode":10128},{"addressLine1":"65 East 89th Street - Rectory basement","addressLine2":"10128","city":"New York","state":"NY"},{"addressLine1":"351 East 74th Street","addressLine2":"2nd Floor","city":"New York","state":"NY","zipcode":10021},{"addressLine1":"135 East 96th Street","addressLine2":"","city":"New York","state":"NY","zipcode":10128},{"addressLine1":"351 East 74th Street","addressLine2":"2nd Floor Kitchen","city":"New York","state":"NY","zipcode":10021},{"addressLine1":"2 East 90th Street","addressLine2":"","city":"New York","state":"NY","zipcode":10128},{"addressLine1":"1157 Lexington Avenue","addressLine2":"","city":"New York","state":"NY","zipcode":10028},{"addressLine1":"420 East 76th Street","addressLine2":"","city":"New York","state":"NY","zipcode":10021},{"addressLine1":"351 East 74th Street","addressLine2":"2nd Floor","city":"New York","state":"NY","zipcode":10021},{"addressLine1":"351 East 74th Street","addressLine2":"2nd Floor Chapel Room","city":"New York","state":"NY","zipcode":10021},{"addressLine1":"1285 Madison Avenue","addressLine2":"10128","city":"New York","state":"NY"},{"addressLine1":"48 East 84th Street","addressLine2":"","city":"New York","state":"NY","zipcode":10028},{"addressLine1":"408 East 82nd Street","addressLine2":"Rectory","city":"New York","state":"NY","zipcode":10028},{"addressLine1":"351 East 74th Street","addressLine2":"2nd Floor Front Room","city":"New York","state":"NY","zipcode":10021},{"addressLine1":"351 East 74th Street","addressLine2":"2nd Floor - Front Room","city":"New York","state":"NY","zipcode":10021},{"addressLine1":"125 East 85th Street","addressLine2":"Ramaz School Entrance","city":"New York","state":"NY","zipcode":10028},{"addressLine1":"351 East 74th Street","addressLine2":"2nd Floor","city":"New York","state":"NY","zipcode":10021},{"addressLine1":"351 East 74th Street","addressLine2":"2nd Floor Kitchen","city":"New York","state":"NY","zipcode":10021},{"addressLine1":"865 Madison Avenue","addressLine2":"3rd Floor","city":"New York","state":"NY","zipcode":10021},{"addressLine1":"62 East 92nd Street","addressLine2":"Basement","city":"New York","state":"NY","zipcode":10128},{"addressLine1":"351 East 74th Street","addressLine2":"2nd Floor Front Room","city":"New York","state":"NY","zipcode":10021},{"addressLine1":"420 East 87th Street","addressLine2":"Basement","city":"New York","state":"NY","zipcode":10128},{"addressLine1":"593 Park Avenue","addressLine2":"5th Floor Library","city":"New York","state":"NY"},{"addressLine1":"65 East 89th Street","addressLine2":"Ring Red Buzzer","city":"New York","state":"NY"},{"addressLine1":"865 Madison Avenue","addressLine2":"Basement","city":"New York","state":"NY","zipcode":10021},{"addressLine1":"Church of the Good Shepard","addressLine2":"543 Main St.","city":"New York","state":"NY"},{"addressLine1":"413 East 79th Street","addressLine2":"Basement","city":"New York","state":"NY","zipcode":10021},{"addressLine1":"351 East 74th Street","addressLine2":"Sanctuary","city":"New York","state":"NY","zipcode":10021},{"addressLine1":"310 East 67th Street","addressLine2":"Auditorium","city":"New York","state":"NY","zipcode":10065},{"addressLine1":"331 E 70th St","addressLine2":"","city":"New York","state":"NY","zipcode":10021},{"addressLine1":"411 East 68th Street","addressLine2":"","city":"New York","state":"NY","zipcode":10021},{"addressLine1":"2 East 90th Street","addressLine2":"Basement","city":"New York","state":"NY","zipcode":10128},{"addressLine1":"341 East 87th Street","addressLine2":"Choir Room (Ring Bell)","city":"New York","state":"NY","zipcode":10128},{"addressLine1":"351 East 74th Street","addressLine2":"2nd Floor Museum Room","city":"New York","state":"NY","zipcode":10021},{"addressLine1":"351 East 74th Street","addressLine2":"2nd Floor Kitchen","city":"New York","state":"NY","zipcode":10021},{"addressLine1":"351 East 74th Street","addressLine2":"2nd Floor","city":"New York","state":"NY","zipcode":10021}]