[{"addressLine1":"109 West 129th Street","addressLine2":"Basement","city":"New York","state":"NY","zipcode":10027},{"addressLine1":"240 West 145th Street","addressLine2":"","city":"New York","state":"NY","zipcode":10039},{"addressLine1":"469 West 142nd Street","addressLine2":"Basement","city":"New York","state":"NY","zipcode":10031},{"addressLine1":"204 West 134th Street","addressLine2":"1st Floor","city":"New York","state":"NY","zipcode":10030},{"addressLine1":"2044 Adam Clayton Powell Blvd.","addressLine2":"","city":"New York","state":"NY","zipcode":10027},{"addressLine1":"469 West 142nd Street","addressLine2":"1st Floor","city":"New York","state":"NY","zipcode":10031},{"addressLine1":"521 W 126th St","addressLine2":"","city":"New York","state":"NY","zipcode":10027},{"addressLine1":"109 West 129th Street","addressLine2":"Basement","city":"New York","state":"NY","zipcode":10027},{"addressLine1":"469 West 142nd Street","addressLine2":"Basement","city":"New York","state":"NY","zipcode":10031},{"addressLine1":"2044 Seventh Avenue","addressLine2":"NY 10027","city":"New York","state":"NY"},{"addressLine1":"127 West 127th Street","addressLine2":"","city":"New York","state":"NY","zipcode":10027},{"addressLine1":"310 West 139th Street","addressLine2":"Basement","city":"New York","state":"NY","zipcode":10037},{"addressLine1":"409 West 141st Street","addressLine2":"Basement","city":"New York","state":"NY","zipcode":10031},{"addressLine1":"91 Claremont Avenue","addressLine2":"4th Floor","city":"New York","state":"NY","zipcode":10027},{"addressLine1":"1727 Amsterdam Avenue","addressLine2":"1st Floor in the rear.","city":"New York","state":"NY","zipcode":10031},{"addressLine1":"469 West 142nd Street","addressLine2":"Basement","city":"New York","state":"NY","zipcode":10037},{"addressLine1":"91 Claremont Avenue","addressLine2":"@ The Cloisters Club Room","city":"New York","state":"NY","zipcode":10027},{"addressLine1":"219 West 132nd Street","addressLine2":"Cafeteria","city":"New York","state":"NY","zipcode":10027},{"addressLine1":"211 West 129th Street","addressLine2":"Downstairs in the Gym","city":"New York","state":"NY","zipcode":10027},{"addressLine1":"425 West 144th Street","addressLine2":"1st Floor","city":"New York","state":"NY","zipcode":10031},{"addressLine1":"204 West 134th Street","addressLine2":"Basement","city":"New York","state":"NY","zipcode":10030},{"addressLine1":"506 Lenox Avenue","addressLine2":"Room #3101","city":"New York","state":"NY","zipcode":10037},{"addressLine1":"1727 Amsterdam Avenue","addressLine2":"1st floor in the rear","city":"New York","state":"NY","zipcode":10031},{"addressLine1":"1854 Amsterdam Avenue","addressLine2":"Basment","city":"New York","state":"NY","zipcode":10031},{"addressLine1":"469 West 142nd Street","addressLine2":"Basement","city":"New York","state":"NY","zipcode":10031},{"addressLine1":"58-66 West 135th Street","addressLine2":"","city":"New York","state":"NY","zipcode":10037}]