[{"addressLine1":"701 West 168th Street @ Fort Washington Avenue","addressLine2":"","city":"New York","state":"NY","zipcode":10032},{"addressLine1":"715 West 179th Street","addressLine2":"","city":"New York","state":"NY","zipcode":10033},{"addressLine1":"715 West 179th Street","addressLine2":"","city":"New York","state":"NY","zipcode":10040},{"addressLine1":"431 West 204th Street","addressLine2":"Basement","city":"New York","state":"NY","zipcode":10034},{"addressLine1":"550 West 155th Street","addressLine2":"2nd Floor Guild Room","city":"New York","state":"NY","zipcode":10032},{"addressLine1":"557 West 156th Street","addressLine2":"NY 10032","city":"New York","state":"NY"},{"addressLine1":"35 Thayer Street","addressLine2":"Basement","city":"New York","state":"NY","zipcode":10040},{"addressLine1":"715 West 179th Street","addressLine2":"1st Floor","city":"New York","state":"NY"},{"addressLine1":"502 West165th Street","addressLine2":"Basement","city":"New York","state":"NY","zipcode":10032},{"addressLine1":"91 Arden Street","addressLine2":"","city":"New York","state":"NY","zipcode":10034},{"addressLine1":"20 Cumming Street","addressLine2":"","city":"New York","state":"NY","zipcode":10034},{"addressLine1":"84 Vermilyea Avenue","addressLine2":"","city":"New York","state":"NY","zipcode":10034},{"addressLine1":"620 Isham Street","addressLine2":"","city":"New York","state":"NY","zipcode":10034},{"addressLine1":"2005 Amsterdam Avenue","addressLine2":"","city":"New York","state":"NY","zipcode":10032},{"addressLine1":"178 Bennett Avenue","addressLine2":"2nd Floor (Lorenz Library)","city":"New York","state":"NY","zipcode":10040},{"addressLine1":"178 Bennett Avenue","addressLine2":"2nd Floor","city":"New York","state":"NY","zipcode":10040},{"addressLine1":"91 Arden Street","addressLine2":"","city":"New York","state":"NY","zipcode":10034},{"addressLine1":"20 Cummings Street","addressLine2":"","city":"New York","state":"NY","zipcode":10034},{"addressLine1":"715 West 179th Street","addressLine2":"","city":"New York","state":"NY","zipcode":10033},{"addressLine1":"189th Street &amp; Bennett Avenue","addressLine2":"Kitchen","city":"New York","state":"NY","zipcode":10040},{"addressLine1":"178 Bennett Avenue","addressLine2":"2nd Floor","city":"New York","state":"NY","zipcode":10040},{"addressLine1":"178 Bennett Avenue","addressLine2":"Kitchen","city":"New York","state":"NY","zipcode":10040}]